{{Infobox Planet  
| name = 362 Havnia
| image = 
| caption = 
| discovery=yes | physical_characteristics = yes | bgcolour=#FFFFC0
| discovery_ref = 
| discoverer = [[奥古斯特·沙卢瓦|奥古斯特·沙卢瓦]]
| discovery_site = [[尼斯|尼斯]]
| discovered =  1893年3月12日
| mp_name = 362
| alt_names = 1893 R
| named_after = [[哥本哈根|哥本哈根]]
| mp_category=[[小行星带|主带小行星]]
| orbit_ref = <ref>[http://ssd.jpl.nasa.gov/sbdb.cgi?sstr=362 362 Havnia (1893 R)]</ref>
| epoch = 2011年8月27日
| semimajor= 2.580580892368152AU
| perihelion=2.465208648380561AU
| aphelion=2.695953136355743[[天文单位|AU]]
| eccentricity =0.04470785795895595	
| period =1514.170018952597[[日|地球日]]<br>4.15[[年|地球年]] 
| inclination=8.072220103337411[[角度|°]]
| asc_node=27.37938348234043°	
| arg_peri=29.99705703879182°
| mean_anomaly=333.895767268408°
| avg_speed=18.54 km/s
 | dimensions=98千米
 | mass=
 | density=
 | surface_grav=
 | escape_velocity=
 | rotation=16.62[[小时|小时]]
 | spectral_type=[[X-型小行星|XC]]
 | magnitude=
 | abs_magnitude=9.00
 | albedo=	
 | single_temperature=
}}
'''小行星362'''（'''362 Havnia'''），是由[[法国|法国]][[天文学家|天文学家]][[奥古斯特·沙卢瓦|奥古斯特·沙卢瓦]]于1893年3月12日在法国[[尼斯|尼斯]]发现的[[小行星带|主带]][[小行星|小行星]]。

小行星362以丹麦首都[[哥本哈根|哥本哈根]]命名。

== 参考资料 ==
{{Reflist}}

{{Minor Planet Number|(361)[[小行星361|小行星361]]|(363)[[小行星363|小行星363]]}}

[[Category:小行星带天体|Category:小行星带天体]]
[[Category:1893年发现的小行星|Category:1893年发现的小行星]]
[[Category:以地名命名的小行星|Category:以地名命名的小行星]]